[{"OBJECT_NAME":"METEOR-M2 3","OBJECT_ID":"2023-091A","EPOCH":"2026-03-09T22:59:41.369280","MEAN_MOTION":14.24037691,"ECCENTRICITY":0.000511,"INCLINATION":98.6213,"RA_OF_ASC_NODE":125.9119,"ARG_OF_PERICENTER":98.6128,"MEAN_ANOMALY":261.563,"EPHEMERIS_TYPE":0,"CLASSIFICATION_TYPE":"U","NORAD_CAT_ID":57166,"ELEMENT_SET_NO":999,"REV_AT_EPOCH":14039,"BSTAR":2.3891208e-5,"MEAN_MOTION_DOT":1.2e-7,"MEAN_MOTION_DDOT":0},{"OBJECT_NAME":"CZ-6A DEB","OBJECT_ID":"2024-140HS","EPOCH":"2026-03-09T14:59:20.543712","MEAN_MOTION":13.73983998,"ECCENTRICITY":0.025843,"INCLINATION":88.9523,"RA_OF_ASC_NODE":287.8773,"ARG_OF_PERICENTER":273.1005,"MEAN_ANOMALY":84.0621,"EPHEMERIS_TYPE":0,"CLASSIFICATION_TYPE":"U","NORAD_CAT_ID":60839,"ELEMENT_SET_NO":999,"REV_AT_EPOCH":7874,"BSTAR":3.4896e-5,"MEAN_MOTION_DOT":5.2e-7,"MEAN_MOTION_DDOT":0}]
